OBJECT_NAME,OBJECT_ID,EPOCH,MEAN_MOTION,ECCENTRICITY,INCLINATION,RA_OF_ASC_NODE,ARG_OF_PERICENTER,MEAN_ANOMALY,EPHEMERIS_TYPE,CLASSIFICATION_TYPE,NORAD_CAT_ID,ELEMENT_SET_NO,REV_AT_EPOCH,BSTAR,MEAN_MOTION_DOT,MEAN_MOTION_DDOT
ELEKTRO-L 3,2019-095A,2026-07-19T03:57:21.795840,1.00271683,.00014812,0.3374,82.3610,18.7927,331.1277,0,U,44903,999,2402,0,-.102E-5,0
SHIJIAN-20 (SJ-20),2019-097A,2026-07-19T20:13:57.664128,1.00271859,.0015536,5.0000,74.6626,57.7897,153.4287,0,U,44910,999,2402,0,.13E-5,0
TJS-5,2020-002A,2026-07-20T00:03:46.882080,1.00272007,.0008076,0.0763,79.6395,338.0195,348.5713,0,U,44978,999,2403,0,-.345E-5,0
GSAT-30,2020-005A,2026-07-20T14:32:20.649120,1.00272951,.00033422,0.0294,236.9017,214.3276,148.2404,0,U,45026,999,2384,0,-.166E-5,0
EUTELSAT KONNECT,2020-005B,2026-07-20T08:01:34.989600,1.00269217,.00018764,0.0680,94.2417,142.3397,189.1131,0,U,45027,999,2466,0,.47E-6,0
JCSAT-17,2020-013A,2026-07-20T08:38:31.446816,1.00273054,.00032154,5.3923,357.1847,130.5609,76.0359,0,U,45245,999,2356,0,-.317E-5,0
GEO-KOMPSAT-2B,2020-013B,2026-07-20T12:01:40.488384,1.00272534,.00003843,0.0507,239.2102,310.3872,57.3501,0,U,45246,999,2361,0,-.345E-5,0
BEIDOU-3 G2,2020-017A,2026-07-20T15:13:10.208352,1.00272526,.00019211,2.9310,47.8211,57.1200,141.7796,0,U,45344,999,2359,0,-.143E-5,0
AEHF-6 (USA 298),2020-022B,2026-07-20T14:44:11.552640,1.00269852,.00418054,2.4763,301.5957,15.4966,340.0847,0,U,45465,999,2334,0,-.298E-5,0
BEIDOU-3 G3,2020-040A,2026-07-20T15:21:54.370368,1.00274004,.00022514,2.5278,67.5047,312.1052,259.8110,0,U,45807,999,2240,0,-.356E-5,0
APSTAR-6D,2020-045A,2026-07-20T06:55:22.594080,1.00271961,.0002428,0.0351,81.0310,26.1518,68.7522,0,U,45863,999,2219,0,-.319E-5,0
KOREASAT 116,2020-048A,2026-07-20T13:03:38.941344,1.00274123,.0001006,0.0179,16.3557,102.1222,131.9275,0,U,45920,999,2197,0,-.363E-5,0
EXPRESS 103,2020-053A,2026-07-18T06:50:29.284224,1.00272468,.00004759,0.0409,240.7231,187.7051,66.7797,0,U,45985,999,2196,0,-.288E-5,0
EXPRESS 80,2020-053B,2026-07-18T22:52:57.151200,1.00265649,.00004754,0.0290,276.2746,346.5594,97.1420,0,U,45986,999,2195,0,-.14E-5,0
BSAT-4B,2020-056A,2026-07-20T14:16:37.784064,1.00270377,.00045377,0.0420,219.8191,270.4315,132.0882,0,U,46112,999,2172,0,-.351E-5,0
MEV-2,2020-056B,2026-07-20T09:42:10.343232,1.00270851,.00000956,0.0551,255.2981,322.1055,225.3114,0,U,46113,999,8101,0,-.13E-6,0
GALAXY 30 (G-30),2020-056C,2026-07-20T11:44:38.586336,1.00271386,.00021859,0.0194,60.8176,54.0916,234.5102,0,U,46114,999,2162,0,.36E-6,0
GAOFEN-13 01,2020-071A,2026-07-20T12:47:38.751360,1.00275684,.00444463,0.4819,86.0878,119.9125,42.4375,0,U,46610,999,2125,0,-.364E-5,0
TIANTONG-1 2,2020-082A,2026-07-20T12:00:40.583808,1.00271587,.00013376,0.7518,332.5690,135.7755,135.0399,0,U,46916,999,2098,0,-.356E-5,0
LUCAS (JDRS-1),2020-089A,2026-07-20T15:22:28.964064,1.00272951,.00019749,0.0616,268.1810,189.4370,162.2025,0,U,47202,999,2075,0,-.237E-5,0
SXM-7,2020-096A,2026-07-20T11:00:48.004416,1.00277136,.00038976,0.0216,102.3702,13.0908,262.8173,0,U,47240,999,777,0,-.207E-5,0
CMS-01,2020-099A,2026-07-20T10:06:08.045280,1.00272872,.00034281,0.0188,70.2265,199.0860,263.4114,0,U,47256,999,2053,0,-.166E-5,0
TURKSAT 5A,2021-001A,2026-07-20T11:33:44.845056,1.00270888,.00001077,0.0149,75.6697,341.9620,84.9687,0,U,47306,999,2030,0,.153E-5,0
TIANTONG-1 3,2021-003A,2026-07-20T15:13:40.159776,1.00269959,.00031767,1.7314,341.4226,142.9198,123.9797,0,U,47321,999,2029,0,-.154E-5,0
TJS-6,2021-010A,2026-07-20T13:58:42.118752,1.00274447,.00031562,0.1650,261.1639,238.7297,186.6383,0,U,47613,999,2014,0,.42E-6,0
SBIRS GEO-5 (USA 315),2021-042A,2026-07-20T14:45:50.733792,1.00271720,.0001663,5.0619,329.3789,150.5384,133.7296,0,U,48618,999,1910,0,-.267E-5,0
FENGYUN 4B,2021-047A,2026-07-19T05:21:02.283840,1.00277813,.00068605,0.2306,80.1873,273.3927,128.2750,0,U,48808,999,1889,0,-.336E-5,0
SXM-8,2021-049A,2026-07-20T11:00:48.004416,1.00270664,.00060923,0.0146,44.1381,347.9859,346.1591,0,U,48838,999,1891,0,-.206E-5,0
TIANLIAN 1-05,2021-063A,2026-07-20T14:54:59.221728,1.00269993,.00012344,1.6781,80.4238,85.7551,12.7930,0,U,49011,999,1841,0,.106E-5,0
STAR ONE D2,2021-069A,2026-07-20T11:05:10.084992,1.00269791,.00025176,0.0081,19.3797,120.5470,254.5389,0,U,49055,999,1827,0,0,0
EUTELSAT QUANTUM,2021-069B,2026-07-20T11:38:44.366208,1.00274257,.00022446,0.0118,41.6640,69.3972,49.5799,0,U,49056,999,1826,0,.124E-5,0
ZHONGXING-2E,2021-071A,2026-07-20T15:04:47.115840,1.00272175,.00012266,0.0437,235.2609,264.2955,123.1148,0,U,49062,999,1837,0,-.292E-5,0
