ELEKTRO-L 3             
1 44903U 19095A   26200.16483560 -.00000102  00000+0  00000+0 0  9999
2 44903   0.3374  82.3610 0001481  18.7927 331.1277  1.00271683 24027
SHIJIAN-20 (SJ-20)      
1 44910U 19097A   26200.84302852  .00000130  00000+0  00000+0 0  9998
2 44910   5.0000  74.6626 0015536  57.7897 153.4287  1.00271859 24020
TJS-5                   
1 44978U 20002A   26201.00262595 -.00000345  00000+0  00000+0 0  9997
2 44978   0.0763  79.6395 0008076 338.0195 348.5713  1.00272007 24038
GSAT-30                 
1 45026U 20005A   26201.60579455 -.00000166  00000+0  00000+0 0  9998
2 45026   0.0294 236.9017 0003342 214.3276 148.2404  1.00272951 23846
EUTELSAT KONNECT        
1 45027U 20005B   26201.33443275  .00000047  00000+0  00000+0 0  9996
2 45027   0.0680  94.2417 0001876 142.3397 189.1131  1.00269217 24662
JCSAT-17                
1 45245U 20013A   26201.36008619 -.00000317  00000+0  00000+0 0  9990
2 45245   5.3923 357.1847 0003215 130.5609  76.0359  1.00273054 23562
GEO-KOMPSAT-2B          
1 45246U 20013B   26201.50116306 -.00000345  00000+0  00000+0 0  9991
2 45246   0.0507 239.2102 0000384 310.3872  57.3501  1.00272534 23610
BEIDOU-3 G2             
1 45344U 20017A   26201.63414593 -.00000143  00000+0  00000+0 0  9993
2 45344   2.9310  47.8211 0001921  57.1200 141.7796  1.00272526 23597
AEHF-6 (USA 298)        
1 45465U 20022B   26201.61402260 -.00000298  00000+0  00000+0 0  9990
2 45465   2.4763 301.5957 0041805  15.4966 340.0847  1.00269852 23348
BEIDOU-3 G3             
1 45807U 20040A   26201.64021262 -.00000356  00000+0  00000+0 0  9997
2 45807   2.5278  67.5047 0002251 312.1052 259.8110  1.00274004 22405
APSTAR-6D               
1 45863U 20045A   26201.28845595 -.00000319  00000+0  00000+0 0  9996
2 45863   0.0351  81.0310 0002428  26.1518  68.7522  1.00271961 22190
KOREASAT 116            
1 45920U 20048A   26201.54420071 -.00000363  00000+0  00000+0 0  9999
2 45920   0.0179  16.3557 0001006 102.1222 131.9275  1.00274123 21970
EXPRESS 103             
1 45985U 20053A   26199.28506116 -.00000288  00000+0  00000+0 0  9994
2 45985   0.0409 240.7231 0000475 187.7051  66.7797  1.00272468 21960
EXPRESS 80              
1 45986U 20053B   26199.95343925 -.00000140  00000+0  00000+0 0  9993
2 45986   0.0290 276.2746 0000475 346.5594  97.1420  1.00265649 21954
BSAT-4B                 
1 46112U 20056A   26201.59488176 -.00000351  00000+0  00000+0 0  9994
2 46112   0.0420 219.8191 0004537 270.4315 132.0882  1.00270377 21727
MEV-2                   
1 46113U 20056B   26201.40428638 -.00000013  00000+0  00000+0 0  9997
2 46113   0.0551 255.2981 0000095 322.1055 225.3114  1.00270851 81014
GALAXY 30 (G-30)        
1 46114U 20056C   26201.48933549  .00000036  00000+0  00000+0 0  9992
2 46114   0.0194  60.8176 0002185  54.0916 234.5102  1.00271386 21627
GAOFEN-13 01            
1 46610U 20071A   26201.53308740 -.00000364  00000+0  00000+0 0  9990
2 46610   0.4819  86.0878 0044446 119.9125  42.4375  1.00275684 21256
TIANTONG-1 2            
1 46916U 20082A   26201.50046972 -.00000356  00000+0  00000+0 0  9995
2 46916   0.7518 332.5690 0001337 135.7755 135.0399  1.00271587 20984
LUCAS (JDRS-1)          
1 47202U 20089A   26201.64061301 -.00000237  00000+0  00000+0 0  9997
2 47202   0.0616 268.1810 0001974 189.4370 162.2025  1.00272951 20758
SXM-7                   
1 47240U 20096A   26201.45888894 -.00000207  00000+0  00000+0 0  9997
2 47240   0.0216 102.3702 0003897  13.0908 262.8173  1.00277136  7778
CMS-01                  
1 47256U 20099A   26201.42092645 -.00000166  00000+0  00000+0 0  9999
2 47256   0.0188  70.2265 0003428 199.0860 263.4114  1.00272872 20535
TURKSAT 5A              
1 47306U 21001A   26201.48176904  .00000153  00000+0  00000+0 0  9991
2 47306   0.0149  75.6697 0000107 341.9620  84.9687  1.00270888 20300
TIANTONG-1 3            
1 47321U 21003A   26201.63449259 -.00000154  00000+0  00000+0 0  9995
2 47321   1.7314 341.4226 0003176 142.9198 123.9797  1.00269959 20290
TJS-6                   
1 47613U 21010A   26201.58243193  .00000042  00000+0  00000+0 0  9995
2 47613   0.1650 261.1639 0003156 238.7297 186.6383  1.00274447 20147
SBIRS GEO-5 (USA 315)   
1 48618U 21042A   26201.61517053 -.00000267  00000+0  00000+0 0  9999
2 48618   5.0619 329.3789 0001663 150.5384 133.7296  1.00271720 19105
FENGYUN 4B              
1 48808U 21047A   26200.22294310 -.00000336  00000+0  00000+0 0  9996
2 48808   0.2306  80.1873 0006860 273.3927 128.2750  1.00277813 18891
SXM-8                   
1 48838U 21049A   26201.45888894 -.00000206  00000+0  00000+0 0  9999
2 48838   0.0146  44.1381 0006092 347.9859 346.1591  1.00270664 18911
TIANLIAN 1-05           
1 49011U 21063A   26201.62151877  .00000106  00000+0  00000+0 0  9990
2 49011   1.6781  80.4238 0001234  85.7551  12.7930  1.00269993 18411
STAR ONE D2             
1 49055U 21069A   26201.46192228  .00000000  00000+0  00000+0 0  9994
2 49055   0.0081  19.3797 0002517 120.5470 254.5389  1.00269791 18273
EUTELSAT QUANTUM        
1 49056U 21069B   26201.48523572  .00000124  00000+0  00000+0 0  9994
2 49056   0.0118  41.6640 0002244  69.3972  49.5799  1.00274257 18263
ZHONGXING-2E            
1 49062U 21071A   26201.62832310 -.00000292  00000+0  00000+0 0  9990
2 49062   0.0437 235.2609 0001226 264.2955 123.1148  1.00272175 18372
